ONEWEB-0196             
1 48218U 21031J   25279.44034958 -.00000095  00000+0 -29049-3 0  9994
2 48218  87.9054 340.2498 0002050 100.8953 259.2408 13.14502360214890
ONEWEB-0183             
1 48219U 21031K   25279.41497781  .00000032  00000+0  52331-4 0  9999
2 48219  87.9058 340.2638 0001944  92.6283 267.5069 13.14501610214988
ONEWEB-0185             
1 48220U 21031L   25279.44113894  .00000078  00000+0  17486-3 0  9995
2 48220  87.9057 340.2261 0002234  92.5604 267.5781 13.14504851214914
ONEWEB-0187             
1 48221U 21031M   25279.49731153 -.00000120  00000+0 -35894-3 0  9998
2 48221  87.9059 340.2612 0002174  98.5059 261.6317 13.14502815214930
ONEWEB-0192             
1 48222U 21031N   25279.46730909  .00000268  00000+0  68821-3 0  9991
2 48222  87.9058 340.2600 0001900 101.2348 258.8996 13.14501878214845
ONEWEB-0219             
1 48223U 21031P   25279.44669213  .00000063  00000+0  13471-3 0  9993
2 48223  87.9059 340.2369 0002127  96.1390 263.9982 13.14502735215048
ONEWEB-0202             
1 48224U 21031Q   25279.42766570 -.00000158  00000+0 -45976-3 0  9998
2 48224  87.9061 340.2552 0002342 115.6309 244.5063 13.14501380215020
ONEWEB-0204             
1 48225U 21031R   25279.23340285  .00000235  00000+0  59817-3 0  9992
2 48225  87.9053 340.2822 0001907  89.7791 270.3557 13.14501879214896
